{"type":"FeatureCollection","features":[{"type":"Feature","id":"032","properties":{"iso_n3":"032"},"geometry":{"type":"MultiPolygon","coordinates":[[[[-68.63288632886328,-52.63630362308681],[-68.25128251282513,-53.10006468039978],[-67.75087750877509,-53.84986814167587],[-66.45126451264512,-54.45072644585873],[-65.05085050850508,-54.69953256054853],[-65.50085500855008,-55.20052990713481],[-66.45126451264512,-55.24961410663144],[-66.95886958869588,-54.897561917138376],[-67.56367563675636,-54.870480979485066],[-68.63288632886328,-54.868788420881735],[-68.63288632886328,-52.63630362308681]]],[[[-57.6239762397624,-30.216672363351],[-57.8759787597876,-31.017252582727046],[-58.14238142381423,-32.04463565494957],[-58.13158131581315,-33.0398601137088],[-58.35118351183512,-33.26327784934862],[-58.42678426784268,-33.90983523582145],[-58.49518495184951,-34.43114328564771],[-57.22437224372243,-35.28757793893371],[-57.361173611736106,-35.97814184909316],[-56.73836738367383,-36.413129410149494],[-56.78876788767887,-36.902278846512445],[-57.749977499775,-38.18354570923478],[-59.23319233192332,-38.720086786491024],[-61.23841238412383,-38.92827149470086],[-62.33642336423364,-38.82841053710427],[-62.1240212402124,-39.42419116547714],[-62.329223292232925,-40.17230206814989],[-62.145621456214556,-40.676684531942826],[-62.746827468274674,-41.028736721435884],[-63.76923769237692,-41.16752652690911],[-64.73044730447305,-40.801933868589394],[-65.11925119251192,-41.064280452105855],[-64.97884978849788,-42.05781235226175],[-64.3020430204302,-42.35908778365484],[-63.75483754837548,-42.044271883435094],[-63.459634596345964,-42.563887374658016],[-64.37764377643776,-42.87362559906778],[-65.18045180451804,-43.49479460649062],[-65.3280532805328,-44.50186697547317],[-65.56565565655656,-45.036715494126085],[-66.50886508865088,-45.04010061133275],[-67.29367293672937,-45.551253309539014],[-67.58167581675816,-46.3010567708151],[-66.59886598865988,-47.03393464605786],[-65.64125641256412,-47.23534911985437],[-65.98685986859869,-48.134097738223666],[-67.16767167671676,-48.69771975313323],[-67.81567815678156,-49.86897030663898],[-68.73008730087301,-50.26502901981867],[-69.13689136891368,-50.7321751943383],[-68.81648816488165,-51.771406176784154],[-68.15048150481505,-52.3502612191237],[-68.57168571685716,-52.299484461023745],[-69.49689496894969,-52.14207651091387],[-71.9161191611916,-52.00836438125064],[-72.330123301233,-51.42612422170443],[-72.30852308523085,-50.67632076042835],[-72.97452974529745,-50.74063798735496],[-73.32733327333273,-50.378430446241914],[-73.41373413734136,-49.31888876055607],[-72.64692646926468,-48.87882352368975],[-72.330123301233,-48.24411404744025],[-72.44892448924489,-47.738039025043975],[-71.9161191611916,-46.88498948896464],[-71.55251552515524,-45.56140866115901],[-71.66051660516605,-44.974090825802804],[-71.22131221312213,-44.78452426222962],[-71.32931329313293,-44.40708369368658],[-71.79371793717937,-44.2073617784934],[-71.46251462514624,-43.78760724486706],[-71.9161191611916,-43.408474117720694],[-72.15012150121501,-42.25414915024826],[-71.74691746917469,-42.05104211784842],[-71.9161191611916,-40.83239992344937],[-71.68211682116821,-39.80840196843351],[-71.4121141211412,-38.916423584477535],[-70.81450814508145,-38.55252348476115],[-71.11691116911169,-37.577609729241914],[-71.12051120511205,-36.65855040763263],[-70.36450364503645,-36.00522278674648],[-70.38970389703897,-35.16909883670046],[-69.81729817298172,-34.194185081181224],[-69.81369813698137,-33.27343320096861],[-70.07290072900729,-33.090636871808755],[-70.53370533705336,-31.364227096410104],[-69.9180991809918,-30.336844024187577],[-70.01530015300153,-29.368700503081662],[-69.65529655296552,-28.459796533092373],[-69.0000900009,-27.520426508243112],[-68.29448294482944,-26.899257500820262],[-68.59328593285933,-26.506583904847233],[-68.38448384483844,-26.184997770214153],[-68.41688416884169,-24.51782754593212],[-67.32967329673296,-24.02529299236251],[-66.9840698406984,-22.98606200991665],[-67.10647106471065,-22.735563336623514],[-66.27486274862748,-21.831737042444225],[-64.96444964449644,-22.07546548132403],[-64.37764377643776,-22.7981880049468],[-63.98523985239852,-21.994222668364095],[-62.847628476284754,-22.034844074844067],[-62.685626856268556,-22.249799017467232],[-60.84600846008459,-23.881425511079286],[-60.02880028800287,-24.032063226775833],[-58.80838808388083,-24.771711336431927],[-57.77877778777787,-25.16269237380162],[-57.63477634776348,-25.604450169271274],[-58.61758617586176,-27.12436779506342],[-57.60957609576096,-27.395177171596544],[-56.48636486364863,-27.549200004499752],[-55.69435694356943,-27.388406937183213],[-54.78714787147871,-26.621677889873816],[-54.62514625146251,-25.739854857537836],[-54.12834128341282,-25.546903176757986],[-53.627936279362785,-26.124065660494203],[-53.649536495364956,-26.92295332126691],[-54.491944919449196,-27.474727425953148],[-55.161551615516146,-27.882634049356163],[-56.291962919629185,-28.852470129065402],[-57.6239762397624,-30.216672363351]]]]}},{"type":"Feature","id":"152","properties":{"iso_n3":"152"},"geometry":{"type":"MultiPolygon","coordinates":[[[[-68.63288632886328,-52.63630362308681],[-68.63288632886328,-54.868788420881735],[-67.56367563675636,-54.870480979485066],[-66.95886958869588,-54.897561917138376],[-67.290072900729,-55.30208342333473],[-68.14688146881468,-55.61182164774449],[-68.640086400864,-55.57966303428118],[-69.23049230492305,-55.49842022132124],[-69.95769957699576,-55.19883734853148],[-71.00531005310053,-55.05327730864492],[-72.26532265322653,-54.49473296954536],[-73.28413284132841,-53.958191892289115],[-74.66294662946629,-52.83771809688332],[-73.83853838538386,-53.047595363696495],[-72.43452434524345,-53.71615601201263],[-71.10611106111061,-54.07497843591902],[-70.59130591305913,-53.61629505441604],[-70.26730267302672,-52.93080882006658],[-69.34569345693457,-52.51782452085357],[-68.63288632886328,-52.63630362308681]]],[[[-69.59049590495904,-17.58002983087421],[-69.10089100891008,-18.26043838941368],[-68.96768967689677,-18.98146835443312],[-68.44208442084421,-19.404608005266113],[-68.75888758887588,-20.372751526372028],[-68.21888218882188,-21.494917880381152],[-67.82647826478265,-22.872660583493406],[-67.10647106471065,-22.735563336623514],[-66.9840698406984,-22.98606200991665],[-67.32967329673296,-24.02529299236251],[-68.41688416884169,-24.51782754593212],[-68.38448384483844,-26.184997770214153],[-68.59328593285933,-26.506583904847233],[-68.29448294482944,-26.899257500820262],[-69.0000900009,-27.520426508243112],[-69.65529655296552,-28.459796533092373],[-70.01530015300153,-29.368700503081662],[-69.9180991809918,-30.336844024187577],[-70.53370533705336,-31.364227096410104],[-70.07290072900729,-33.090636871808755],[-69.81369813698137,-33.27343320096861],[-69.81729817298172,-34.194185081181224],[-70.38970389703897,-35.16909883670046],[-70.36450364503645,-36.00522278674648],[-71.12051120511205,-36.65855040763263],[-71.11691116911169,-37.577609729241914],[-70.81450814508145,-38.55252348476115],[-71.4121141211412,-38.916423584477535],[-71.68211682116821,-39.80840196843351],[-71.9161191611916,-40.83239992344937],[-71.74691746917469,-42.05104211784842],[-72.15012150121501,-42.25414915024826],[-71.9161191611916,-43.408474117720694],[-71.46251462514624,-43.78760724486706],[-71.79371793717937,-44.2073617784934],[-71.32931329313293,-44.40708369368658],[-71.22131221312213,-44.78452426222962],[-71.66051660516605,-44.974090825802804],[-71.55251552515524,-45.56140866115901],[-71.9161191611916,-46.88498948896464],[-72.44892448924489,-47.738039025043975],[-72.330123301233,-48.24411404744025],[-72.64692646926468,-48.87882352368975],[-73.41373413734136,-49.31888876055607],[-73.32733327333273,-50.378430446241914],[-72.97452974529745,-50.74063798735496],[-72.30852308523085,-50.67632076042835],[-72.330123301233,-51.42612422170443],[-71.9161191611916,-52.00836438125064],[-69.49689496894969,-52.14207651091387],[-68.57168571685716,-52.299484461023745],[-69.46089460894609,-52.292714226610414],[-69.94329943299432,-52.53813522409356],[-70.84330843308433,-52.89865020660328],[-71.00531005310053,-53.832942555642546],[-71.430114301143,-53.856638376089194],[-72.55692556925568,-53.531667124249445],[-73.70173701737016,-52.83433297967666],[-74.94734947349473,-52.262248171750436],[-75.26055260552606,-51.62923125410427],[-74.97614976149761,-51.04360597735139],[-75.48015480154801,-50.378430446241914],[-75.60975609756098,-48.67402393268657],[-75.18135181351813,-47.712650645993996],[-74.12654126541265,-46.93915136427127],[-75.64575645756457,-46.64803128449816],[-74.69174691746917,-45.76451569355885],[-74.35334353343534,-44.10242314508682],[-73.24093240932409,-44.454475334579875],[-72.7189271892719,-42.38278360410149],[-73.38853388533884,-42.11705190337837],[-73.70173701737016,-43.36616015263739],[-74.33174331743317,-43.22567778856084],[-74.01854018540185,-41.79546576874529],[-73.67653676536764,-39.94211409809674],[-73.21933219332193,-39.2583204223506],[-73.50733507335073,-38.28340666683136],[-73.58653586535866,-37.156162637012244],[-73.16533165331653,-37.124004023548935],[-72.55332553325533,-35.5093031159702],[-71.86211862118621,-33.90983523582145],[-71.43731437314372,-32.41869110628595],[-71.66771667716677,-30.920776742337118],[-71.36891368913689,-30.096500702514433],[-71.49131491314913,-28.860932922082064],[-70.90450904509045,-27.64059816907968],[-70.72450724507245,-25.706003685471195],[-70.40410404104041,-23.629234279182818],[-70.09090090900908,-21.393364364181238],[-70.16290162901629,-19.756660194759178],[-70.37170371703716,-18.348451436786945],[-69.85689856898568,-18.092875087683808],[-69.59049590495904,-17.58002983087421]]]]}},{"type":"Feature","id":"238","properties":{"iso_n3":"238"},"geometry":{"type":"Polygon","coordinates":[[[-61.19881198811987,-51.84926387253743],[-60,-51.250098126957894],[-59.15039150391503,-51.50059680025103],[-58.549185491854914,-51.09946041126135],[-57.749977499775,-51.549680999747665],[-58.048780487804876,-51.90004063063739],[-59.39879398793987,-52.199623503427155],[-59.84879848798488,-51.84926387253743],[-60.698406984069834,-52.299484461023745],[-61.19881198811987,-51.84926387253743]]]}},{"type":"Feature","id":"858","properties":{"iso_n3":"858"},"geometry":{"type":"Polygon","coordinates":[[[-57.6239762397624,-30.216672363351],[-56.97596975969759,-30.110041171341088],[-55.97155971559715,-30.883540453063816],[-55.600756007560065,-30.853074398203837],[-54.571145711457106,-31.494554108866673],[-53.786337863378634,-32.048020772156235],[-53.21033210332102,-32.728429330695704],[-53.649536495364956,-33.20234573962867],[-53.372333723337235,-33.76766031314156],[-53.80793807938079,-34.39729211358107],[-54.934749347493465,-34.95245133547397],[-55.672756727567275,-34.752729420280794],[-56.216362163621625,-34.85936061229071],[-57.13797137971379,-34.43114328564771],[-57.81837818378183,-34.463301899111016],[-58.42678426784268,-33.90983523582145],[-58.35118351183512,-33.26327784934862],[-58.13158131581315,-33.0398601137088],[-58.14238142381423,-32.04463565494957],[-57.8759787597876,-31.017252582727046],[-57.6239762397624,-30.216672363351]]]}},{"type":"Feature","id":"076","properties":{"iso_n3":"076"},"geometry":{"type":"Polygon","coordinates":[[[-53.372333723337235,-33.76766031314156],[-53.649536495364956,-33.20234573962867],[-53.21033210332102,-32.728429330695704],[-53.786337863378634,-32.048020772156235],[-54.571145711457106,-31.494554108866673],[-55.600756007560065,-30.853074398203837],[-55.97155971559715,-30.883540453063816],[-56.97596975969759,-30.110041171341088],[-57.6239762397624,-30.216672363351],[-56.291962919629185,-28.852470129065402],[-55.161551615516146,-27.882634049356163],[-54.491944919449196,-27.474727425953148],[-53.649536495364956,-26.92295332126691],[-53.627936279362785,-26.124065660494203],[-54.12834128341282,-25.546903176757986],[-54.62514625146251,-25.739854857537836],[-54.430744307443064,-25.16269237380162],[-54.293942939429385,-24.570296862635416],[-54.293942939429385,-24.02021531655251],[-54.653946539465394,-23.839111545995983],[-55.02835028350283,-24.00159717191586],[-55.399153991539904,-23.95759064822923],[-55.51795517955179,-23.57168728666953],[-55.61155611556116,-22.65601308226691],[-55.798757987579876,-22.356430209477146],[-56.47196471964719,-22.085620832944024],[-56.88236882368824,-22.281957630930535],[-57.93717937179372,-22.090698508754024],[-57.872378723787236,-20.73326650888174],[-58.16758167581675,-20.17641472838551],[-57.85437854378543,-19.969922578779006],[-57.95157951579516,-19.399530329456127],[-57.67437674376744,-18.961157651193133],[-57.4979749797498,-18.17411790064375],[-57.73557735577356,-17.5529488932209],[-58.27918279182792,-17.271984165067792],[-58.387183871838715,-16.87761801049143],[-58.23958239582396,-16.298762968151877],[-60.158401584015834,-16.258141561671906],[-60.54360543605435,-15.093661242579486],[-60.2520025200252,-15.076735656546163],[-60.26280262802628,-14.645133212696507],[-60.460804608046075,-14.354013132923399],[-60.5040050400504,-13.775158090583858],[-61.08361083610836,-13.47896033500075],[-61.71361713617135,-13.48911568662075],[-62.127621276212764,-13.197995606847641],[-62.80442804428044,-12.999966250257785],[-63.196831968319685,-12.627603357524748],[-64.31644316443165,-12.461732614398215],[-65.40365403654036,-11.56636911323558],[-65.32085320853209,-10.896115906316098],[-65.44325443254432,-10.511905103359737],[-65.33885338853388,-9.76210164208365],[-66.64566645666456,-9.931357502416859],[-67.17487174871748,-10.307105512356557],[-68.04968049680497,-10.711627018552917],[-68.27288272882728,-11.01459500854935],[-68.78768787687876,-11.036598270392659],[-69.52929529295292,-10.951970340226055],[-70.09450094500944,-11.124611317765925],[-70.5481054810548,-11.00951733273935],[-70.48330483304832,-9.489599706947203],[-71.3041130411304,-10.078610100906744],[-72.18612186121861,-10.053221721856758],[-72.56412564125641,-9.520065761807174],[-73.22653226532265,-9.462518769293894],[-73.01413014130141,-9.032608884047562],[-73.57213572135721,-8.424980345451374],[-73.98613986139861,-7.524539168478739],[-73.72333723337233,-7.341742839318883],[-73.72333723337233,-6.918603188485875],[-73.11853118531185,-6.629175667316105],[-73.21933219332193,-6.089249472853197],[-72.96372963729637,-5.740582400566794],[-72.89172891728917,-5.275128784650491],[-71.74691746917469,-4.594720226111022],[-70.92970929709297,-4.40176854533118],[-70.79650796507964,-4.251130829634633],[-69.89289892898928,-4.298522470527928],[-69.44289442894429,-1.556577533130067],[-69.42129421294213,-1.1232825306770735],[-69.5760957609576,-0.5495051641475186],[-70.01890018900188,-0.18560506443114377],[-70.01530015300153,0.5421951350016201],[-69.45369453694536,0.706373319524829],[-69.2520925209252,0.603127244721577],[-69.21969219692197,0.9856454890746136],[-69.80289802898028,1.0888915638778656],[-69.81729817298172,1.7151382471107013],[-67.86967869678696,1.6931349852673918],[-67.53847538475384,2.036724381743795],[-67.26127261272612,1.7202159229207012],[-67.06327063270632,1.1295129703578368],[-66.8760687606876,1.2530697484010744],[-66.32526325263252,0.7249914641614765],[-65.54765547655477,0.7893086910880953],[-65.35325353253532,1.0956617982911894],[-64.61164611646116,1.3292348855510028],[-64.19764197641976,1.4934130700742116],[-64.08244082440824,1.9165527209072195],[-63.36963369633696,2.20090256626699],[-63.423634236342366,2.41077983308017],[-64.26964269642696,2.4971003218500982],[-64.410044100441,3.12673212228961],[-64.36684366843669,3.796985329209079],[-64.81684816848168,4.055946795518878],[-64.62964629646297,4.149037518702144],[-63.888038880388805,4.020403064848907],[-63.09243092430924,3.7699043915557695],[-62.80442804428044,4.006862596022245],[-62.08442084420844,4.162577987528792],[-60.96840968409684,4.536633438865167],[-60.60120601206012,4.917459124614865],[-60.73440734407343,5.200116411371312],[-60.21240212402124,5.244122935057945],[-59.981999819998194,5.013934965004793],[-60.11160111601116,4.5755622867418],[-59.76599765997659,4.423232012441929],[-59.53919539195391,3.9594709551289498],[-59.81639816398163,3.6057262070325606],[-59.97479974799748,2.756061788159897],[-59.719197191971915,2.249986765763623],[-59.64719647196472,1.786225708450658],[-59.03159031590316,1.317386975327679],[-58.538385383853836,1.26830277583106],[-58.43038430384303,1.4646395738175642],[-58.11358113581136,1.5069535389008735],[-57.659976599766,1.682979633647392],[-57.335973359733586,1.948711334370529],[-56.78156781567816,1.8640834042039245],[-56.540365403654036,1.8996271348738958],[-55.99675996759967,1.8183843219139533],[-55.90675906759067,2.0214913543137953],[-56.07236072360723,2.2212132695069755],[-55.97155971559715,2.510640790676746],[-55.56835568355683,2.4209351847001557],[-55.096750967509664,2.5241812595034077],[-54.52434524345243,2.3126114340869037],[-54.088740887408875,2.1061192844803998],[-53.779137791377906,2.3769286610135225],[-53.55593555935559,2.3346146959302274],[-53.41913419134191,2.0536499677771047],[-52.94032940329403,2.1247374291170473],[-52.555125551255514,2.503870556263422],[-52.24912249122491,3.241826107316186],[-51.658716587165856,4.155807753115468],[-51.31671316713167,4.203199394008763],[-51.06831068310683,3.649732730719194],[-50.510305103051024,1.9013196934772338],[-49.973899738997375,1.737141508954025],[-49.948699486994855,1.0465775987945563],[-50.69750697506976,0.22230155897187842],[-50.38790387903879,-0.07897387242122988],[-48.62028620286202,-0.23468926392776268],[-48.584285842858435,-1.2383765157036493],[-47.82467824678247,-0.581663777610828],[-46.56826568265683,-0.9404862015172171],[-44.905049050490504,-1.5514998573200671],[-44.419044190441895,-2.137125134072946],[-44.58104581045811,-2.690591797362515],[-43.41823418234182,-2.382546131556097],[-41.47421474214741,-2.9123169743990047],[-39.980199801998026,-2.8733881265223715],[-38.50058500585004,-3.7010492835517255],[-37.222572225722246,-4.821523078957512],[-36.452164521645216,-5.109258041523958],[-35.5989559895599,-5.149879448003929],[-35.235352353523524,-5.464695348223685],[-34.8969489694897,-6.737499417929357],[-34.73134731347312,-7.343435397922207],[-35.127351273512744,-8.99706515337759],[-35.638556385563845,-9.648700215660412],[-37.046170461704605,-11.039983387599321],[-37.683376833768335,-12.170612534625107],[-38.42498424984248,-13.038895098134432],[-38.673386733867346,-13.05751324277108],[-38.9541895418954,-13.793776235220506],[-38.88218882188821,-15.667438609109041],[-39.15939159391593,-17.207666938141173],[-39.267392673926736,-17.867764793440656],[-39.584195841958405,-18.262130948017017],[-39.760597605976045,-19.599252244649307],[-40.775807758077576,-20.904214927818288],[-40.94500945009449,-21.936675675850807],[-41.755017550175495,-22.3699706783038],[-41.989019890198904,-22.970828982486665],[-43.07623076230763,-22.967443865280003],[-44.64944649446494,-23.35165466823637],[-45.35145351453514,-23.79679758091269],[-46.47106471064711,-24.089610219289128],[-47.64827648276483,-24.885112762855172],[-48.49428494284942,-25.876952104407728],[-48.641886418864175,-26.623370448477147],[-48.47628476284763,-27.175144553163378],[-48.659886598865995,-28.185602039352588],[-48.886688866888676,-28.67475147571554],[-49.588695886958874,-29.224833021798446],[-50.69750697506976,-30.985093969263737],[-51.575915759157596,-31.77721139562312],[-52.25632256322562,-32.246050128746084],[-52.71352713527135,-33.197268063818676],[-53.372333723337235,-33.76766031314156]]]}},{"type":"Feature","id":"068","properties":{"iso_n3":"068"},"geometry":{"type":"Polygon","coordinates":[[[-69.52929529295292,-10.951970340226055],[-68.78768787687876,-11.036598270392659],[-68.27288272882728,-11.01459500854935],[-68.04968049680497,-10.711627018552917],[-67.17487174871748,-10.307105512356557],[-66.64566645666456,-9.931357502416859],[-65.33885338853388,-9.76210164208365],[-65.44325443254432,-10.511905103359737],[-65.32085320853209,-10.896115906316098],[-65.40365403654036,-11.56636911323558],[-64.31644316443165,-12.461732614398215],[-63.196831968319685,-12.627603357524748],[-62.80442804428044,-12.999966250257785],[-62.127621276212764,-13.197995606847641],[-61.71361713617135,-13.48911568662075],[-61.08361083610836,-13.47896033500075],[-60.5040050400504,-13.775158090583858],[-60.460804608046075,-14.354013132923399],[-60.26280262802628,-14.645133212696507],[-60.2520025200252,-15.076735656546163],[-60.54360543605435,-15.093661242579486],[-60.158401584015834,-16.258141561671906],[-58.23958239582396,-16.298762968151877],[-58.387183871838715,-16.87761801049143],[-58.27918279182792,-17.271984165067792],[-57.73557735577356,-17.5529488932209],[-57.4979749797498,-18.17411790064375],[-57.67437674376744,-18.961157651193133],[-57.95157951579516,-19.399530329456127],[-57.85437854378543,-19.969922578779006],[-58.16758167581675,-20.17641472838551],[-58.18198181981819,-19.86836906257909],[-59.11439114391143,-19.357216364372817],[-60.04320043200431,-19.341983336942832],[-61.78561785617856,-19.63310341671594],[-62.26442264422644,-20.51323389044859],[-62.28962289622896,-21.051467526308173],[-62.685626856268556,-22.249799017467232],[-62.847628476284754,-22.034844074844067],[-63.98523985239852,-21.994222668364095],[-64.37764377643776,-22.7981880049468],[-64.96444964449644,-22.07546548132403],[-66.27486274862748,-21.831737042444225],[-67.10647106471065,-22.735563336623514],[-67.82647826478265,-22.872660583493406],[-68.21888218882188,-21.494917880381152],[-68.75888758887588,-20.372751526372028],[-68.44208442084421,-19.404608005266113],[-68.96768967689677,-18.98146835443312],[-69.10089100891008,-18.26043838941368],[-69.59049590495904,-17.58002983087421],[-68.96048960489604,-16.500177441948395],[-69.38889388893888,-15.660668374695717],[-69.1620916209162,-15.323849212632638],[-69.33849338493384,-14.953178878502925],[-68.94968949689496,-14.453874090519989],[-68.9280892808928,-13.602517113043987],[-68.88128881288813,-12.900105292661209],[-68.66528665286653,-12.561593571994806],[-69.52929529295292,-10.951970340226055]]]}},{"type":"Feature","id":"604","properties":{"iso_n3":"604"},"geometry":{"type":"Polygon","coordinates":[[[-69.89289892898928,-4.298522470527928],[-70.79650796507964,-4.251130829634633],[-70.92970929709297,-4.40176854533118],[-71.74691746917469,-4.594720226111022],[-72.89172891728917,-5.275128784650491],[-72.96372963729637,-5.740582400566794],[-73.21933219332193,-6.089249472853197],[-73.11853118531185,-6.629175667316105],[-73.72333723337233,-6.918603188485875],[-73.72333723337233,-7.341742839318883],[-73.98613986139861,-7.524539168478739],[-73.57213572135721,-8.424980345451374],[-73.01413014130141,-9.032608884047562],[-73.22653226532265,-9.462518769293894],[-72.56412564125641,-9.520065761807174],[-72.18612186121861,-10.053221721856758],[-71.3041130411304,-10.078610100906744],[-70.48330483304832,-9.489599706947203],[-70.5481054810548,-11.00951733273935],[-70.09450094500944,-11.124611317765925],[-69.52929529295292,-10.951970340226055],[-68.66528665286653,-12.561593571994806],[-68.88128881288813,-12.900105292661209],[-68.9280892808928,-13.602517113043987],[-68.94968949689496,-14.453874090519989],[-69.33849338493384,-14.953178878502925],[-69.1620916209162,-15.323849212632638],[-69.38889388893888,-15.660668374695717],[-68.96048960489604,-16.500177441948395],[-69.59049590495904,-17.58002983087421],[-69.85689856898568,-18.092875087683808],[-70.37170371703716,-18.348451436786945],[-71.3761137611376,-17.772981511654066],[-71.46251462514624,-17.36338232964772],[-73.44613446134461,-16.359695077871834],[-75.23895238952389,-15.266302220119357],[-76.00936009360093,-14.648518329903169],[-76.42336423364233,-13.822549731477153],[-76.25776257762577,-13.534814768910707],[-77.10737107371074,-12.223081851328402],[-78.09378093780937,-10.378192973696514],[-79.03699036990369,-8.386051497574726],[-79.44739447394474,-7.930753233278423],[-79.76059760597606,-7.194490240828998],[-80.53820538205382,-6.541162619942838],[-81.2510125101251,-6.136641113746492],[-80.9270092700927,-5.689805642466837],[-81.40941409414094,-4.736895148790921],[-81.09981099810997,-4.036175887011467],[-80.30420304203042,-3.4048515279686313],[-80.18540185401854,-3.821220944388301],[-80.46980469804697,-4.0598717074581145],[-80.4410044100441,-4.425464365777827],[-80.03060030600305,-4.345914111421223],[-79.62379623796238,-4.454237862034475],[-79.20619206192062,-4.958620325827411],[-78.6409864098641,-4.547328585217727],[-78.45018450184502,-3.873690261091596],[-77.83817838178382,-3.003715138978933],[-76.63576635766357,-2.6093489844025726],[-75.5449554495545,-1.561655208940067],[-75.23535235352354,-0.9117127052605696],[-75.37215372153722,-0.15175389236449632],[-75.10575105751057,-0.0569706105779062],[-74.44334443344432,-0.530887019510871],[-74.12294122941229,-1.0031108698404978],[-73.65853658536585,-1.260379777546973],[-73.07173071730718,-2.3097661116128165],[-72.32652326523265,-2.435015448259378],[-71.77571775717757,-2.169283747536255],[-71.4121141211412,-2.3436172836794498],[-70.81450814508145,-2.2572967949095215],[-70.04770047700477,-2.7244429694291625],[-70.69210692106921,-3.7433632486350206],[-70.39330393303932,-3.767059069081668],[-69.89289892898928,-4.298522470527928]]]}},{"type":"Feature","id":"170","properties":{"iso_n3":"170"},"geometry":{"type":"Polygon","coordinates":[[[-66.8760687606876,1.2530697484010744],[-67.06327063270632,1.1295129703578368],[-67.26127261272612,1.7202159229207012],[-67.53847538475384,2.036724381743795],[-67.86967869678696,1.6931349852673918],[-69.81729817298172,1.7151382471107013],[-69.80289802898028,1.0888915638778656],[-69.21969219692197,0.9856454890746136],[-69.2520925209252,0.603127244721577],[-69.45369453694536,0.706373319524829],[-70.01530015300153,0.5421951350016201],[-70.01890018900188,-0.18560506443114377],[-69.5760957609576,-0.5495051641475186],[-69.42129421294213,-1.1232825306770735],[-69.44289442894429,-1.556577533130067],[-69.89289892898928,-4.298522470527928],[-70.39330393303932,-3.767059069081668],[-70.69210692106921,-3.7433632486350206],[-70.04770047700477,-2.7244429694291625],[-70.81450814508145,-2.2572967949095215],[-71.4121141211412,-2.3436172836794498],[-71.77571775717757,-2.169283747536255],[-72.32652326523265,-2.435015448259378],[-73.07173071730718,-2.3097661116128165],[-73.65853658536585,-1.260379777546973],[-74.12294122941229,-1.0031108698404978],[-74.44334443344432,-0.530887019510871],[-75.10575105751057,-0.0569706105779062],[-75.37215372153722,-0.15175389236449632],[-75.80055800558006,0.08520431210197899],[-76.29376293762937,0.41525323975172057],[-76.57816578165782,0.25615273103851166],[-77.42417424174242,0.39494253651173494],[-77.6689766897669,0.8265449803614047],[-77.85617856178561,0.8096193943280809],[-78.8569885698857,1.3817042022542978],[-78.99018990189902,1.6914424266640538],[-78.61938619386194,1.7659150052106725],[-78.66258662586625,2.2669123517969467],[-78.42858428584286,2.6291198929099977],[-77.93177931779317,2.6968222370432784],[-77.51057510575106,3.324761478879452],[-77.1289712897129,3.849454645912374],[-77.49617496174962,4.088105408982187],[-77.3089730897309,4.668653009925066],[-77.53217532175321,5.582634655724348],[-77.31977319773198,5.844981239240809],[-77.47817478174781,6.691260540906825],[-77.88137881378813,7.224416500956394],[-77.75177751777517,7.710180820112683],[-77.43137431374313,7.6374008001694165],[-77.24417244172442,7.935291114355849],[-77.47457474574746,8.52430150831539],[-77.35217352173521,8.669861548201936],[-76.83736837368373,8.639395493341965],[-76.08496084960849,9.336729637914743],[-75.67455674556746,9.443360829924671],[-75.66375663756637,9.773409757574413],[-75.48015480154801,10.619689059240415],[-74.90774907749078,11.08345011655338],[-74.27774277742778,11.102068261190041],[-74.19854198541985,11.310252969399869],[-73.41373413734136,11.227317597836603],[-72.62892628926289,11.731700061629539],[-72.23652236522365,11.955117797269367],[-71.7541175411754,12.437496999218993],[-71.40131401314012,12.376564889499036],[-71.13851138511384,12.112525747379252],[-71.33291332913329,11.775706585316172],[-71.97371973719737,11.608143283586315],[-72.22932229322292,11.108838495603365],[-72.61452614526145,10.822796091640257],[-72.90612906129061,10.45043319890722],[-73.02853028530285,9.736173468301104],[-73.30573305733057,9.152240750151563],[-72.78732787327873,9.084538406018282],[-72.66132661326613,8.625855024515303],[-72.43812438124381,8.405822406082152],[-72.36252362523625,8.00299345848913],[-72.48132481324812,7.6323231243594165],[-72.44532445324452,7.4241384161495745],[-72.19692196921969,7.341203044586308],[-71.95931959319593,6.990843413696581],[-70.6741067410674,7.087319254086509],[-70.09450094500944,6.96037735883661],[-69.38889388893888,6.100557588343946],[-68.98568985689856,6.20718878035386],[-68.26568265682657,6.153026905047241],[-67.69687696876969,6.268120890073817],[-67.34047340473404,6.095479912533946],[-67.52047520475205,5.557246276674377],[-67.74367743677436,5.220427114611297],[-67.82287822878229,4.504474825401857],[-67.62127621276213,3.839299294292374],[-67.33687336873368,3.54310153870928],[-67.30447304473044,3.317991244466114],[-67.80847808478084,2.820379015086516],[-67.44847448474485,2.60034639665335],[-67.1820718207182,2.249986765763623],[-66.8760687606876,1.2530697484010744]]]}},{"type":"Feature","id":"862","properties":{"iso_n3":"862"},"geometry":{"type":"Polygon","coordinates":[[[-60.73440734407343,5.200116411371312],[-60.60120601206012,4.917459124614865],[-60.96840968409684,4.536633438865167],[-62.08442084420844,4.162577987528792],[-62.80442804428044,4.006862596022245],[-63.09243092430924,3.7699043915557695],[-63.888038880388805,4.020403064848907],[-64.62964629646297,4.149037518702144],[-64.81684816848168,4.055946795518878],[-64.36684366843669,3.796985329209079],[-64.410044100441,3.12673212228961],[-64.26964269642696,2.4971003218500982],[-63.423634236342366,2.41077983308017],[-63.36963369633696,2.20090256626699],[-64.08244082440824,1.9165527209072195],[-64.19764197641976,1.4934130700742116],[-64.61164611646116,1.3292348855510028],[-65.35325353253532,1.0956617982911894],[-65.54765547655477,0.7893086910880953],[-66.32526325263252,0.7249914641614765],[-66.8760687606876,1.2530697484010744],[-67.1820718207182,2.249986765763623],[-67.44847448474485,2.60034639665335],[-67.80847808478084,2.820379015086516],[-67.30447304473044,3.317991244466114],[-67.33687336873368,3.54310153870928],[-67.62127621276213,3.839299294292374],[-67.82287822878229,4.504474825401857],[-67.74367743677436,5.220427114611297],[-67.52047520475205,5.557246276674377],[-67.34047340473404,6.095479912533946],[-67.69687696876969,6.268120890073817],[-68.26568265682657,6.153026905047241],[-68.98568985689856,6.20718878035386],[-69.38889388893888,6.100557588343946],[-70.09450094500944,6.96037735883661],[-70.6741067410674,7.087319254086509],[-71.95931959319593,6.990843413696581],[-72.19692196921969,7.341203044586308],[-72.44532445324452,7.4241384161495745],[-72.48132481324812,7.6323231243594165],[-72.36252362523625,8.00299345848913],[-72.43812438124381,8.405822406082152],[-72.66132661326613,8.625855024515303],[-72.78732787327873,9.084538406018282],[-73.30573305733057,9.152240750151563],[-73.02853028530285,9.736173468301104],[-72.90612906129061,10.45043319890722],[-72.61452614526145,10.822796091640257],[-72.22932229322292,11.108838495603365],[-71.97371973719737,11.608143283586315],[-71.33291332913329,11.775706585316172],[-71.36171361713616,11.540440939453035],[-71.94851948519485,11.423654395823121],[-71.62091620916209,10.970048690130142],[-71.63171631716317,10.447048081700544],[-72.07452074520745,9.864807922154341],[-71.69651696516965,9.072690495794959],[-71.26451264512644,9.137007722721577],[-71.04131041310413,9.859730246344341],[-71.35091350913508,10.211782435837407],[-71.40131401314012,10.968356131526804],[-70.15570155701556,11.376262754929826],[-70.29250292502924,11.846794046656129],[-69.94329943299432,12.16160994687587],[-69.58329583295833,11.459198126493092],[-68.88128881288813,11.443965099063107],[-68.23328233282332,10.885420759963537],[-68.19368193681936,10.555371832313796],[-67.29727297272973,10.54521648069381],[-66.22806228062281,10.648462555497062],[-65.65565655656556,10.201627084217407],[-64.88884888848888,10.076377747570845],[-64.33084330843307,10.389501089187263],[-64.31644316443165,10.641692321083724],[-63.0780307803078,10.700931872200357],[-61.87921879218791,10.716164899630343],[-62.72882728827288,10.419967144047234],[-62.38682386823868,9.947743293717608],[-61.58761587615875,9.873270715171003],[-60.83160831608316,9.380736161601376],[-60.66960669606695,8.580155942225346],[-60.15120151201512,8.602159204068656],[-59.75879758797588,8.366893558205504],[-60.55080550805508,7.779575722849302],[-60.637206372063716,7.415675623132913],[-60.29520295202951,7.043312730399876],[-60.54360543605435,6.857131284033358],[-61.15921159211592,6.696338216716811],[-61.14121141211412,6.23426971800717],[-61.411214112141124,5.958382665664061],[-60.73440734407343,5.200116411371312]]]}},{"type":"Feature","id":"328","properties":{"iso_n3":"328"},"geometry":{"type":"Polygon","coordinates":[[[-56.540365403654036,1.8996271348738958],[-56.78156781567816,1.8640834042039245],[-57.335973359733586,1.948711334370529],[-57.659976599766,1.682979633647392],[-58.11358113581136,1.5069535389008735],[-58.43038430384303,1.4646395738175642],[-58.538385383853836,1.26830277583106],[-59.03159031590316,1.317386975327679],[-59.64719647196472,1.786225708450658],[-59.719197191971915,2.249986765763623],[-59.97479974799748,2.756061788159897],[-59.81639816398163,3.6057262070325606],[-59.53919539195391,3.9594709551289498],[-59.76599765997659,4.423232012441929],[-60.11160111601116,4.5755622867418],[-59.981999819998194,5.013934965004793],[-60.21240212402124,5.244122935057945],[-60.73440734407343,5.200116411371312],[-61.411214112141124,5.958382665664061],[-61.14121141211412,6.23426971800717],[-61.15921159211592,6.696338216716811],[-60.54360543605435,6.857131284033358],[-60.29520295202951,7.043312730399876],[-60.637206372063716,7.415675623132913],[-60.55080550805508,7.779575722849302],[-59.75879758797588,8.366893558205504],[-59.09999099990999,7.9996083412824674],[-58.48438484384843,7.347973278999632],[-58.45558455584555,6.83343546358671],[-58.07758077580776,6.8097396431400625],[-57.54117541175411,6.320590206777112],[-57.14877148771487,5.973615693094047],[-57.307173071730716,5.073174516121412],[-57.91557915579155,4.812520491208289],[-57.86157861578616,4.577254845345138],[-58.04518045180451,4.061024471328878],[-57.60237602376023,3.334916830499438],[-57.281972819728196,3.333224271896114],[-57.14877148771487,2.769602256986545],[-56.540365403654036,1.8996271348738958]]]}},{"type":"Feature","id":"740","properties":{"iso_n3":"740"},"geometry":{"type":"Polygon","coordinates":[[[-54.52434524345243,2.3126114340869037],[-55.096750967509664,2.5241812595034077],[-55.56835568355683,2.4209351847001557],[-55.97155971559715,2.510640790676746],[-56.07236072360723,2.2212132695069755],[-55.90675906759067,2.0214913543137953],[-55.99675996759967,1.8183843219139533],[-56.540365403654036,1.8996271348738958],[-57.14877148771487,2.769602256986545],[-57.281972819728196,3.333224271896114],[-57.60237602376023,3.334916830499438],[-58.04518045180451,4.061024471328878],[-57.86157861578616,4.577254845345138],[-57.91557915579155,4.812520491208289],[-57.307173071730716,5.073174516121412],[-57.14877148771487,5.973615693094047],[-55.949959499594996,5.772201219297543],[-55.84195841958419,5.953304989854061],[-55.031950319503196,6.026085009797342],[-53.95913959139591,5.756968191867543],[-54.477544775447754,4.897148421374894],[-54.39834398343983,4.213354745628749],[-54.00594005940059,3.6192666758592225],[-54.18234182341823,3.189356790612891],[-54.268742687426865,2.7323659677132497],[-54.52434524345243,2.3126114340869037]]]}},{"type":"Feature","id":"218","properties":{"iso_n3":"218"},"geometry":{"type":"Polygon","coordinates":[[[-75.37215372153722,-0.15175389236449632],[-75.23535235352354,-0.9117127052605696],[-75.5449554495545,-1.561655208940067],[-76.63576635766357,-2.6093489844025726],[-77.83817838178382,-3.003715138978933],[-78.45018450184502,-3.873690261091596],[-78.6409864098641,-4.547328585217727],[-79.20619206192062,-4.958620325827411],[-79.62379623796238,-4.454237862034475],[-80.03060030600305,-4.345914111421223],[-80.4410044100441,-4.425464365777827],[-80.46980469804697,-4.0598717074581145],[-80.18540185401854,-3.821220944388301],[-80.30420304203042,-3.4048515279686313],[-79.77139771397714,-2.656740625295882],[-79.98739987399874,-2.220060505636212],[-80.36900369003689,-2.685514121552515],[-80.96660966609666,-2.247141443289536],[-80.7650076500765,-1.9644841565330893],[-80.93420934209341,-1.0572727451471309],[-80.5850058500585,-0.9066350294505838],[-80.39780397803978,-0.2837734634243958],[-80.01980019800197,0.3610913644451017],[-80.09180091800917,0.7689979878481097],[-79.54099540995409,0.9822603718679517],[-78.8569885698857,1.3817042022542978],[-77.85617856178561,0.8096193943280809],[-77.6689766897669,0.8265449803614047],[-77.42417424174242,0.39494253651173494],[-76.57816578165782,0.25615273103851166],[-76.29376293762937,0.41525323975172057],[-75.80055800558006,0.08520431210197899],[-75.37215372153722,-0.15175389236449632]]]}},{"type":"Feature","id":"600","properties":{"iso_n3":"600"},"geometry":{"type":"Polygon","coordinates":[[[-58.16758167581675,-20.17641472838551],[-57.872378723787236,-20.73326650888174],[-57.93717937179372,-22.090698508754024],[-56.88236882368824,-22.281957630930535],[-56.47196471964719,-22.085620832944024],[-55.798757987579876,-22.356430209477146],[-55.61155611556116,-22.65601308226691],[-55.51795517955179,-23.57168728666953],[-55.399153991539904,-23.95759064822923],[-55.02835028350283,-24.00159717191586],[-54.653946539465394,-23.839111545995983],[-54.293942939429385,-24.02021531655251],[-54.293942939429385,-24.570296862635416],[-54.430744307443064,-25.16269237380162],[-54.62514625146251,-25.739854857537836],[-54.78714787147871,-26.621677889873816],[-55.69435694356943,-27.388406937183213],[-56.48636486364863,-27.549200004499752],[-57.60957609576096,-27.395177171596544],[-58.61758617586176,-27.12436779506342],[-57.63477634776348,-25.604450169271274],[-57.77877778777787,-25.16269237380162],[-58.80838808388083,-24.771711336431927],[-60.02880028800287,-24.032063226775833],[-60.84600846008459,-23.881425511079286],[-62.685626856268556,-22.249799017467232],[-62.28962289622896,-21.051467526308173],[-62.26442264422644,-20.51323389044859],[-61.78561785617856,-19.63310341671594],[-60.04320043200431,-19.341983336942832],[-59.11439114391143,-19.357216364372817],[-58.18198181981819,-19.86836906257909],[-58.16758167581675,-20.17641472838551]]]}}]}